[{
    "OBJECT_NAME": "STARLINK-1594",
    "OBJECT_ID": "2020-057Z",
    "EPOCH": "2020-09-09T12:00:00.999648",
    "MEAN_MOTION": 15.64058858,
    "ECCENTRICITY": 0.0004949,
    "INCLINATION": 52.999,
    "RA_OF_ASC_NODE": 332.7032,
    "ARG_OF_PERICENTER": 293.3802,
    "MEAN_ANOMALY": 194.8672,
    "EPHEMERIS_TYPE": 0,
    "CLASSIFICATION_TYPE": "U",
    "NORAD_CAT_ID": 46140,
    "ELEMENT_SET_NO": 999,
    "REV_AT_EPOCH": 412,
    "BSTAR": -0.00011085,
    "MEAN_MOTION_DOT": -0.00011225,
    "MEAN_MOTION_DDOT": 0
},{
    "OBJECT_NAME": "STARLINK-1596",
    "OBJECT_ID": "2020-057AA",
    "EPOCH": "2020-09-09T12:00:00.999648",
    "MEAN_MOTION": 15.62827508,
    "ECCENTRICITY": 0.000491,
    "INCLINATION": 52.9991,
    "RA_OF_ASC_NODE": 332.7194,
    "ARG_OF_PERICENTER": 282.7106,
    "MEAN_ANOMALY": 197.228,
    "EPHEMERIS_TYPE": 0,
    "CLASSIFICATION_TYPE": "U",
    "NORAD_CAT_ID": 46141,
    "ELEMENT_SET_NO": 999,
    "REV_AT_EPOCH": 412,
    "BSTAR": -0.0011825,
    "MEAN_MOTION_DOT": -0.00107778,
    "MEAN_MOTION_DDOT": 0
},{
    "OBJECT_NAME": "STARLINK-1597",
    "OBJECT_ID": "2020-057AB",
    "EPOCH": "2020-09-09T06:00:00.999648",
    "MEAN_MOTION": 15.60190779,
    "ECCENTRICITY": 0.0001276,
    "INCLINATION": 53,
    "RA_OF_ASC_NODE": 333.9853,
    "ARG_OF_PERICENTER": 28.4859,
    "MEAN_ANOMALY": 117.8893,
    "EPHEMERIS_TYPE": 0,
    "CLASSIFICATION_TYPE": "U",
    "NORAD_CAT_ID": 46142,
    "ELEMENT_SET_NO": 999,
    "REV_AT_EPOCH": 177,
    "BSTAR": -0.015179,
    "MEAN_MOTION_DOT": -0.01138013,
    "MEAN_MOTION_DDOT": 0
},{
    "OBJECT_NAME": "STARLINK-1599",
    "OBJECT_ID": "2020-057AC",
    "EPOCH": "2020-09-09T06:00:00.999648",
    "MEAN_MOTION": 15.66243954,
    "ECCENTRICITY": 0.0001111,
    "INCLINATION": 52.9992,
    "RA_OF_ASC_NODE": 333.5944,
    "ARG_OF_PERICENTER": 51.4887,
    "MEAN_ANOMALY": 270.1335,
    "EPHEMERIS_TYPE": 0,
    "CLASSIFICATION_TYPE": "U",
    "NORAD_CAT_ID": 46143,
    "ELEMENT_SET_NO": 999,
    "REV_AT_EPOCH": 177,
    "BSTAR": 0.00021701,
    "MEAN_MOTION_DOT": 0.00022323,
    "MEAN_MOTION_DDOT": 0
},{
    "OBJECT_NAME": "STARLINK-1606",
    "OBJECT_ID": "2020-057AD",
    "EPOCH": "2020-09-09T12:00:00.999648",
    "MEAN_MOTION": 15.66290085,
    "ECCENTRICITY": 0.0001486,
    "INCLINATION": 53,
    "RA_OF_ASC_NODE": 332.397,
    "ARG_OF_PERICENTER": 57.1553,
    "MEAN_ANOMALY": 222.076,
    "EPHEMERIS_TYPE": 0,
    "CLASSIFICATION_TYPE": "U",
    "NORAD_CAT_ID": 46144,
    "ELEMENT_SET_NO": 999,
    "REV_AT_EPOCH": 412,
    "BSTAR": -2.0036e-5,
    "MEAN_MOTION_DOT": -2.672e-5,
    "MEAN_MOTION_DDOT": 0
},{
    "OBJECT_NAME": "STARLINK-1607",
    "OBJECT_ID": "2020-057AE",
    "EPOCH": "2020-09-09T12:00:00.999648",
    "MEAN_MOTION": 15.61425228,
    "ECCENTRICITY": 0.0001366,
    "INCLINATION": 53.0004,
    "RA_OF_ASC_NODE": 332.7192,
    "ARG_OF_PERICENTER": 54.8623,
    "MEAN_ANOMALY": 82.0939,
    "EPHEMERIS_TYPE": 0,
    "CLASSIFICATION_TYPE": "U",
    "NORAD_CAT_ID": 46145,
    "ELEMENT_SET_NO": 999,
    "REV_AT_EPOCH": 412,
    "BSTAR": -0.00086984,
    "MEAN_MOTION_DOT": -0.00075463,
    "MEAN_MOTION_DDOT": 0
},{
    "OBJECT_NAME": "STARLINK-1608",
    "OBJECT_ID": "2020-057AF",
    "EPOCH": "2020-09-09T12:00:00.999648",
    "MEAN_MOTION": 15.62777372,
    "ECCENTRICITY": 0.0001322,
    "INCLINATION": 53.0012,
    "RA_OF_ASC_NODE": 332.7324,
    "ARG_OF_PERICENTER": 58.2102,
    "MEAN_ANOMALY": 57.0411,
    "EPHEMERIS_TYPE": 0,
    "CLASSIFICATION_TYPE": "U",
    "NORAD_CAT_ID": 46146,
    "ELEMENT_SET_NO": 999,
    "REV_AT_EPOCH": 412,
    "BSTAR": 1.7662e-5,
    "MEAN_MOTION_DOT": 1.084e-5,
    "MEAN_MOTION_DDOT": 0
},{
    "OBJECT_NAME": "STARLINK-1611",
    "OBJECT_ID": "2020-057AG",
    "EPOCH": "2020-09-09T12:00:00.999648",
    "MEAN_MOTION": 15.62818226,
    "ECCENTRICITY": 0.0002373,
    "INCLINATION": 53.0017,
    "RA_OF_ASC_NODE": 332.7258,
    "ARG_OF_PERICENTER": 320.2418,
    "MEAN_ANOMALY": 161.4177,
    "EPHEMERIS_TYPE": 0,
    "CLASSIFICATION_TYPE": "U",
    "NORAD_CAT_ID": 46147,
    "ELEMENT_SET_NO": 999,
    "REV_AT_EPOCH": 412,
    "BSTAR": -0.0012927,
    "MEAN_MOTION_DOT": -0.0011752,
    "MEAN_MOTION_DDOT": 0
},{
    "OBJECT_NAME": "STARLINK-1616",
    "OBJECT_ID": "2020-057AH",
    "EPOCH": "2020-09-09T06:00:00.999648",
    "MEAN_MOTION": 15.66272309,
    "ECCENTRICITY": 0.0001175,
    "INCLINATION": 53.0006,
    "RA_OF_ASC_NODE": 333.6379,
    "ARG_OF_PERICENTER": 61.3229,
    "MEAN_ANOMALY": 238.6405,
    "EPHEMERIS_TYPE": 0,
    "CLASSIFICATION_TYPE": "U",
    "NORAD_CAT_ID": 46148,
    "ELEMENT_SET_NO": 999,
    "REV_AT_EPOCH": 182,
    "BSTAR": 0.00022575,
    "MEAN_MOTION_DOT": 0.00023274,
    "MEAN_MOTION_DDOT": 0
},{
    "OBJECT_NAME": "STARLINK-1620",
    "OBJECT_ID": "2020-057AJ",
    "EPOCH": "2020-09-09T12:00:00.999648",
    "MEAN_MOTION": 15.6516453,
    "ECCENTRICITY": 0.0001856,
    "INCLINATION": 52.9986,
    "RA_OF_ASC_NODE": 332.3604,
    "ARG_OF_PERICENTER": 25.9357,
    "MEAN_ANOMALY": 272.3316,
    "EPHEMERIS_TYPE": 0,
    "CLASSIFICATION_TYPE": "U",
    "NORAD_CAT_ID": 46149,
    "ELEMENT_SET_NO": 999,
    "REV_AT_EPOCH": 412,
    "BSTAR": 0.045485,
    "MEAN_MOTION_DOT": 0.05336729,
    "MEAN_MOTION_DDOT": 0
},{
    "OBJECT_NAME": "STARLINK-1629",
    "OBJECT_ID": "2020-057AK",
    "EPOCH": "2020-09-09T12:00:00.999648",
    "MEAN_MOTION": 15.6274941,
    "ECCENTRICITY": 0.0005674,
    "INCLINATION": 53.0012,
    "RA_OF_ASC_NODE": 332.7271,
    "ARG_OF_PERICENTER": 296.7255,
    "MEAN_ANOMALY": 179.9747,
    "EPHEMERIS_TYPE": 0,
    "CLASSIFICATION_TYPE": "U",
    "NORAD_CAT_ID": 46150,
    "ELEMENT_SET_NO": 999,
    "REV_AT_EPOCH": 412,
    "BSTAR": 2.0216e-5,
    "MEAN_MOTION_DOT": 1.312e-5,
    "MEAN_MOTION_DDOT": 0
},{
    "OBJECT_NAME": "STARLINK-1631",
    "OBJECT_ID": "2020-057AL",
    "EPOCH": "2020-09-09T12:00:00.999648",
    "MEAN_MOTION": 15.72344019,
    "ECCENTRICITY": 0.0002138,
    "INCLINATION": 52.998,
    "RA_OF_ASC_NODE": 331.4759,
    "ARG_OF_PERICENTER": 63.7232,
    "MEAN_ANOMALY": 298.0291,
    "EPHEMERIS_TYPE": 0,
    "CLASSIFICATION_TYPE": "U",
    "NORAD_CAT_ID": 46151,
    "ELEMENT_SET_NO": 999,
    "REV_AT_EPOCH": 413,
    "BSTAR": 8.4388e-6,
    "MEAN_MOTION_DOT": 5.28e-6,
    "MEAN_MOTION_DDOT": 0
},{
    "OBJECT_NAME": "STARLINK-1634",
    "OBJECT_ID": "2020-057AM",
    "EPOCH": "2020-09-09T12:00:00.999648",
    "MEAN_MOTION": 15.62750069,
    "ECCENTRICITY": 0.000136,
    "INCLINATION": 52.9986,
    "RA_OF_ASC_NODE": 332.7534,
    "ARG_OF_PERICENTER": 56.4442,
    "MEAN_ANOMALY": 48.8099,
    "EPHEMERIS_TYPE": 0,
    "CLASSIFICATION_TYPE": "U",
    "NORAD_CAT_ID": 46152,
    "ELEMENT_SET_NO": 999,
    "REV_AT_EPOCH": 412,
    "BSTAR": 8.5897e-6,
    "MEAN_MOTION_DOT": 2.52e-6,
    "MEAN_MOTION_DDOT": 0
},{
    "OBJECT_NAME": "STARLINK-1636",
    "OBJECT_ID": "2020-057AN",
    "EPOCH": "2020-09-09T12:00:00.999648",
    "MEAN_MOTION": 15.72215464,
    "ECCENTRICITY": 0.0001191,
    "INCLINATION": 52.9973,
    "RA_OF_ASC_NODE": 331.5018,
    "ARG_OF_PERICENTER": 77.4562,
    "MEAN_ANOMALY": 270.6503,
    "EPHEMERIS_TYPE": 0,
    "CLASSIFICATION_TYPE": "U",
    "NORAD_CAT_ID": 46153,
    "ELEMENT_SET_NO": 999,
    "REV_AT_EPOCH": 413,
    "BSTAR": -2.7019e-5,
    "MEAN_MOTION_DOT": -4.246e-5,
    "MEAN_MOTION_DDOT": 0
}]
